NORAD_CAT_ID,OBJECT_NAME,OBJECT_TYPE,EPOCH,MEAN_MOTION,ECCENTRICITY,INCLINATION,RA_OF_ASC_NODE,ARG_OF_PERICENTER,MEAN_ANOMALY,BSTAR,MEAN_MOTION_DOT,MEAN_MOTION_DDOT,TLE_LINE0,TLE_LINE1,TLE_LINE2,SEMIMAJOR_AXIS,PERIOD,APOGEE,PERIGEE,DECAYED
53036.0,STARLINK-4155,PAYLOAD,2023-05-12 23:47:08,15.08858479,0.0001329,53.2172,25.5944,66.0796,294.0335,0.00079405,0.00012378,0.0,0 STARLINK-4155,1 53036U 22076BC  23132.99107211  .00012378  00000-0  79405-3 0  9994,2 53036  53.2172  25.5944 0001329  66.0796 294.0335 15.08858479 47379,6917.824,95.436,540.608,538.77,0.0
53036.0,STARLINK-4155,PAYLOAD,2023-05-13 20:27:09,15.08846698,0.0001167,53.2176,21.7289,76.2248,283.8874,0.00024215,3.569e-05,0.0,0 STARLINK-4155,1 53036U 22076BC  23133.85219248  .00003569  00000-0  24215-3 0  9995,2 53036  53.2176  21.7289 0001167  76.2248 283.8874 15.08846698 47507,6917.86,95.437,540.532,538.918,0.0
53036.0,STARLINK-4155,PAYLOAD,2023-05-13 23:37:55,15.088483,0.0001181,53.2179,21.133,82.2397,277.8729,0.000315,4.73e-05,0.0,0 STARLINK-4155,1 53036U 22076BC  23133.98467157  .00004730  00000-0  31500-3 0  9999,2 53036  53.2179  21.1330 0001181  82.2397 277.8729 15.08848300 47985,6917.855,95.437,540.537,538.903,0.0
53036.0,STARLINK-4155,PAYLOAD,2023-05-14 20:17:56,15.08837809,0.0001627,53.2183,17.2725,119.3182,240.7972,0.00011562,1.552e-05,0.0,0 STARLINK-4155,1 53036U 22076BC  23134.84579479  .00001552  00000-0  11562-3 0  9991,2 53036  53.2183  17.2725 0001627 119.3182 240.7972 15.08837809 47658,6917.887,95.438,540.878,538.627,0.0
53036.0,STARLINK-4155,PAYLOAD,2023-05-15 01:04:05,15.0884653,0.0001392,53.2179,16.3794,114.8359,245.2778,-1.2238e-05,-4.83e-06,0.0,0 STARLINK-4155,1 53036U 22076BC  23135.04451090 -.00000483  00000-0 -12238-4 0  9998,2 53036  53.2179  16.3794 0001392 114.8359 245.2778 15.08846530 48144,6917.86,95.437,540.688,538.762,0.0
53036.0,STARLINK-4155,PAYLOAD,2023-05-15 09:01:01,15.08840898,0.0001291,53.2175,14.8859,90.4092,269.7048,-2.5608e-05,-6.95e-06,0.0,0 STARLINK-4155,1 53036U 22076BC  23135.37571287 -.00000695  00000-0 -25608-4 0  9995,2 53036  53.2175  14.8859 0001291  90.4092 269.7048 15.08840898 47732,6917.878,95.437,540.636,538.85,0.0
53036.0,STARLINK-4155,PAYLOAD,2023-05-16 00:54:53,15.08844219,0.0001238,53.2182,11.9118,90.8762,269.2372,6.181e-05,6.96e-06,0.0,0 STARLINK-4155,1 53036U 22076BC  23136.03811400  .00000696  00000-0  61810-4 0  9997,2 53036  53.2182  11.9118 0001238  90.8762 269.2372 15.08844219 48293,6917.867,95.437,540.589,538.876,0.0
53036.0,STARLINK-4155,PAYLOAD,2023-05-16 21:34:54,15.08838767,0.0001121,53.2175,8.0469,99.5075,260.6043,4.5312e-05,4.33e-06,0.0,0 STARLINK-4155,1 53036U 22076BC  23136.89923780  .00000433  00000-0  45312-4 0  9994,2 53036  53.2175   8.0469 0001121  99.5075 260.6043 15.08838767 48421,6917.884,95.438,540.525,538.974,0.0
53036.0,STARLINK-4155,PAYLOAD,2023-05-17 21:25:41,15.08841061,0.0001169,53.2179,3.5885,95.9774,264.1351,3.2548e-05,2.3e-06,0.0,0 STARLINK-4155,1 53036U 22076BC  23137.89283956  .00000230  00000-0  32548-4 0  9991,2 53036  53.2179   3.5885 0001169  95.9774 264.1351 15.08841061 48113,6917.877,95.437,540.551,538.933,0.0
53036.0,STARLINK-4155,PAYLOAD,2023-05-18 02:11:51,15.08835094,0.0001246,53.2181,2.6959,99.1041,261.0093,0.0003687,5.584e-05,0.0,0 STARLINK-4155,1 53036U 22076BC  23138.09156278  .00005584  00000-0  36870-3 0  9998,2 53036  53.2181   2.6959 0001246  99.1041 261.0093 15.08835094 48609,6917.895,95.438,540.622,538.898,0.0
53036.0,STARLINK-4155,PAYLOAD,2023-05-18 18:05:41,15.08853335,0.0001202,53.2182,359.7221,104.5513,255.5612,-0.00031133,-5.241e-05,0.0,0 STARLINK-4155,1 53036U 22076BC  23138.75395614 -.00005241  00000-0 -31133-3 0  9999,2 53036  53.2182 359.7221 0001202 104.5513 255.5612 15.08853335 48248,6917.84,95.437,540.536,538.873,0.0
53036.0,STARLINK-4155,PAYLOAD,2023-05-19 21:07:14,15.08850311,0.0001038,53.2177,354.6668,86.7748,273.3363,0.00013207,1.815e-05,0.0,0 STARLINK-4155,1 53036U 22076BC  23139.88003230  .00001815  00000-0  13207-3 0  9997,2 53036  53.2177 354.6668 0001038  86.7748 273.3363 15.08850311 48410,6917.849,95.437,540.432,538.996,0.0
53036.0,STARLINK-4155,PAYLOAD,2023-05-20 00:18:00,15.08850472,9.85e-05,53.218,354.0717,86.1455,273.965,0.00015902,2.245e-05,0.0,0 STARLINK-4155,1 53036U 22076BC  23140.01251120  .00002245  00000-0  15902-3 0  9999,2 53036  53.2180 354.0717 0000985  86.1455 273.9650 15.08850472 48897,6917.848,95.437,540.395,539.032,0.0
53036.0,STARLINK-4155,PAYLOAD,2023-05-20 17:47:15,15.0884656,9.9e-05,53.2184,350.7997,84.675,275.4355,5.6365e-05,6.1e-06,0.0,0 STARLINK-4155,1 53036U 22076BC  23140.74115345  .00000610  00000-0  56365-4 0  9990,2 53036  53.2184 350.7997 0000990  84.6750 275.4355 15.08846560 49007,6917.86,95.437,540.41,539.04,0.0
53036.0,STARLINK-4155,PAYLOAD,2023-05-20 20:58:01,15.0885124,9.61e-05,53.2165,350.2078,90.4773,269.6329,0.00010852,1.44e-05,0.0,0 STARLINK-4155,1 53036U 22076BC  23140.87363027  .00001440  00000-0  10852-3 0  9998,2 53036  53.2165 350.2078 0000961  90.4773 269.6329 15.08851240 48566,6917.846,95.437,540.376,539.046,0.0
53036.0,STARLINK-4155,PAYLOAD,2023-05-21 00:08:47,15.088557,9.96e-05,53.2172,349.6116,88.0091,272.1015,0.00018096,2.595e-05,0.0,0 STARLINK-4155,1 53036U 22076BC  23141.00610740  .00002595  00000-0  18096-3 0  9991,2 53036  53.2172 349.6116 0000996  88.0091 272.1015 15.08855700 49043,6917.832,95.437,540.386,539.008,0.0
53036.0,STARLINK-4155,PAYLOAD,2023-05-21 14:27:17,15.08824771,0.0001147,53.2175,346.9346,88.9996,271.1128,-0.00031295,-5.263e-05,0.0,0 STARLINK-4155,1 53036U 22076BC  23141.60228244 -.00005263  00000-0 -31295-3 0  9994,2 53036  53.2175 346.9346 0001147  88.9996 271.1128 15.08824771 48679,6917.927,95.439,540.585,538.998,0.0
53036.0,STARLINK-4155,PAYLOAD,2023-05-21 16:02:40,15.08823534,9.77e-05,53.2176,346.6374,77.008,283.1021,-0.00026754,-4.541e-05,0.0,0 STARLINK-4155,1 53036U 22076BC  23141.66852648 -.00004541  00000-0 -26754-3 0  9993,2 53036  53.2176 346.6374 0000977  77.0080 283.1021 15.08823534 49145,6917.931,95.439,540.472,539.12,0.0
53036.0,STARLINK-4155,PAYLOAD,2023-05-21 20:48:50,15.08822355,0.000101,53.2175,345.7456,72.7371,287.3731,-0.00025423,-4.329e-05,0.0,0 STARLINK-4155,1 53036U 22076BC  23141.86724900 -.00004329  00000-0 -25423-3 0  9990,2 53036  53.2175 345.7456 0001010  72.7371 287.3731 15.08822355 48715,6917.934,95.439,540.498,539.101,0.0
53036.0,STARLINK-4155,PAYLOAD,2023-05-22 12:42:42,15.08828157,9.83e-05,53.2188,342.7715,77.6466,282.4636,9.8117e-06,-1.32e-06,0.0,0 STARLINK-4155,1 53036U 22076BC  23142.52965663 -.00000132  00000-0  98117-5 0  9996,2 53036  53.2188 342.7715 0000983  77.6466 282.4636 15.08828157 48818,6917.917,95.438,540.462,539.102,0.0
53036.0,STARLINK-4155,PAYLOAD,2023-05-22 15:53:28,15.08834025,0.0001027,53.2174,342.1776,77.8179,282.2928,1.7909e-05,-3e-08,0.0,0 STARLINK-4155,1 53036U 22076BC  23142.66213103 -.00000003  00000-0  17909-4 0  9992,2 53036  53.2174 342.1776 0001027  77.8179 282.2928 15.08834025 49293,6917.899,95.438,540.474,539.053,0.0
53036.0,STARLINK-4155,PAYLOAD,2023-05-22 22:15:00,15.08841667,0.0001002,53.2173,340.9883,75.4534,284.6569,0.00014557,2.03e-05,0.0,0 STARLINK-4155,1 53036U 22076BC  23142.92708865  .00002030  00000-0  14557-3 0  9991,2 53036  53.2173 340.9883 0001002  75.4534 284.6569 15.08841667 48879,6917.875,95.437,540.433,539.047,0.0
53036.0,STARLINK-4155,PAYLOAD,2023-05-23 17:19:38,15.08860765,9.46e-05,53.2165,337.4203,75.5833,284.5264,0.00082354,0.0001285,0.0,0 STARLINK-4155,1 53036U 22076BC  23143.72196960  .00012850  00000-0  82354-3 0  9998,2 53036  53.2165 337.4203 0000946  75.5833 284.5264 15.08860765 49452,6917.817,95.436,540.336,539.027,0.0
53036.0,STARLINK-4155,PAYLOAD,2023-05-23 20:30:24,15.08863094,9.04e-05,53.2166,336.8256,74.1206,285.9886,0.00081953,0.00012787,0.0,0 STARLINK-4155,1 53036U 22076BC  23143.85444784  .00012787  00000-0  81953-3 0  9995,2 53036  53.2166 336.8256 0000904  74.1206 285.9886 15.08863094 49012,6917.81,95.436,540.3,539.049,0.0
53036.0,STARLINK-4155,PAYLOAD,2023-05-24 04:27:20,15.08847822,0.000121,53.2167,335.3389,61.7104,298.401,0.0001659,2.354e-05,0.0,0 STARLINK-4155,1 53036U 22076BC  23144.18564887  .00002354  00000-0  16590-3 0  9993,2 53036  53.2167 335.3389 0001210  61.7104 298.4010 15.08847822 49529,6917.856,95.437,540.559,538.884,0.0
53036.0,STARLINK-4155,PAYLOAD,2023-05-24 15:35:01,15.08852753,9.92e-05,53.2163,333.2572,84.1568,275.9537,0.00042244,6.444e-05,0.0,0 STARLINK-4155,1 53036U 22076BC  23144.64932584  .00006444  00000-0  42244-3 0  9996,2 53036  53.2163 333.2572 0000992  84.1568 275.9537 15.08852753 49135,6917.841,95.437,540.393,539.02,0.0
53036.0,STARLINK-4155,PAYLOAD,2023-05-25 18:36:34,15.0885097,0.0001001,53.2166,328.2025,81.3813,278.7292,0.00044741,6.842e-05,0.0,0 STARLINK-4155,1 53036U 22076BC  23145.77540467  .00006842  00000-0  44741-3 0  9992,2 53036  53.2166 328.2025 0001001  81.3813 278.7292 15.08850970 49766,6917.847,95.437,540.404,539.019,0.0
53036.0,STARLINK-4155,PAYLOAD,2023-05-25 21:47:21,15.08853993,9.81e-05,53.2168,327.6078,80.8667,279.2436,0.0005215,8.025e-05,0.0,0 STARLINK-4155,1 53036U 22076BC  23145.90788324  .00008025  00000-0  52150-3 0  9991,2 53036  53.2168 327.6078 0000981  80.8667 279.2436 15.08853993 49322,6917.838,95.437,540.381,539.024,0.0
53036.0,STARLINK-4155,PAYLOAD,2023-05-26 18:27:25,15.08731461,4.27e-05,53.2169,323.7419,322.6465,37.4497,-0.0021598,-0.00034394,0.0,0 STARLINK-4155,1 53036U 22076BC  23146.76904033 -.00034394  00000-0 -21598-2 0  9994,2 53036  53.2169 323.7419 0000427 322.6465  37.4497 15.08731461 49918,6918.212,95.444,540.373,539.782,0.0
53036.0,STARLINK-4155,PAYLOAD,2023-05-26 21:38:08,15.08842973,5.21e-05,53.2168,323.1468,165.4845,194.6163,8.2561e-05,1.027e-05,0.0,0 STARLINK-4155,1 53036U 22076BC  23146.90148156  .00001027  00000-0  82561-4 0  9990,2 53036  53.2168 323.1468 0000521 165.4845 194.6163 15.08842973 49473,6917.871,95.437,540.097,539.376,0.0
